{
  "type": "FeatureCollection",
  "features": [
    {
      "type": "Feature",
      "properties": {
        "norad_id": 35434,
        "name": "COSMOS 2251 DEB",
        "group": "cosmos-2251-debris",
        "lat": 30.979115654286865,
        "lon": -152.2533484724856,
        "alt_km": 840.5151454973966,
        "timestamp": "2025-12-21T11:31:43.255544+00:00",
        "meta_object_name": "COSMOS 2251 DEB",
        "meta_object_id": "1993-036AKC",
        "meta_epoch": "2025-12-13T21:29:58.278624",
        "meta_mean_motion": 14.25692247,
        "meta_eccentricity": 0.00874643,
        "meta_inclination": 74.0404,
        "meta_ra_of_asc_node": 211.5388,
        "meta_arg_of_pericenter": 282.0357,
        "meta_mean_anomaly": 77.0999,
        "meta_ephemeris_type": 0,
        "meta_classification_type": "U",
        "meta_norad_cat_id": 35434,
        "meta_element_set_no": 999,
        "meta_rev_at_epoch": 86134,
        "meta_bstar": 0.00076141319,
        "meta_mean_motion_dot": 1.854e-05,
        "meta_mean_motion_ddot": 0,
        "tle_line1": "1 35434U 93036AKC 25347.89581341  .00001854  00000+0  76141-3 0  9999",
        "tle_line2": "2 35434  74.0404 211.5388 0087464 282.0357  77.0999 14.25692247861349"
      },
      "geometry": {
        "type": "Point",
        "coordinates": [
          -152.2533484724856,
          30.979115654286865
        ]
      }
    },
    {
      "type": "Feature",
      "properties": {
        "norad_id": 35435,
        "name": "COSMOS 2251 DEB",
        "group": "cosmos-2251-debris",
        "lat": 73.81234915248204,
        "lon": 167.88251674258674,
        "alt_km": 626.3945070332929,
        "timestamp": "2025-12-21T11:31:43.255555+00:00",
        "meta_object_name": "COSMOS 2251 DEB",
        "meta_object_id": "1993-036AKD",
        "meta_epoch": "2025-12-18T13:24:14.493312",
        "meta_mean_motion": 14.78644291,
        "meta_eccentricity": 0.00073996,
        "meta_inclination": 74.0108,
        "meta_ra_of_asc_node": 92.6132,
        "meta_arg_of_pericenter": 188.8212,
        "meta_mean_anomaly": 191.4596,
        "meta_ephemeris_type": 0,
        "meta_classification_type": "U",
        "meta_norad_cat_id": 35435,
        "meta_element_set_no": 999,
        "meta_rev_at_epoch": 87625,
        "meta_bstar": 0.0017393261,
        "meta_mean_motion_dot": 0.0001274,
        "meta_mean_motion_ddot": 0,
        "tle_line1": "1 35435U 93036AKD 25352.55850108  .00012740  00000+0  17393-2 0  9998",
        "tle_line2": "2 35435  74.0108  92.6132 0007399 188.8212 191.4596 14.78644291876252"
      },
      "geometry": {
        "type": "Point",
        "coordinates": [
          167.88251674258674,
          73.81234915248204
        ]
      }
    },
    {
      "type": "Feature",
      "properties": {
        "norad_id": 35439,
        "name": "COSMOS 2251 DEB",
        "group": "cosmos-2251-debris",
        "lat": -16.677977287404826,
        "lon": -55.31178793703362,
        "alt_km": 918.5127848030916,
        "timestamp": "2025-12-21T11:31:43.255565+00:00",
        "meta_object_name": "COSMOS 2251 DEB",
        "meta_object_id": "1993-036AKH",
        "meta_epoch": "2025-12-20T15:40:28.809408",
        "meta_mean_motion": 13.92842634,
        "meta_eccentricity": 0.0242584,
        "meta_inclination": 74.0193,
        "meta_ra_of_asc_node": 121.1801,
        "meta_arg_of_pericenter": 288.7541,
        "meta_mean_anomaly": 84.8538,
        "meta_ephemeris_type": 0,
        "meta_classification_type": "U",
        "meta_norad_cat_id": 35439,
        "meta_element_set_no": 999,
        "meta_rev_at_epoch": 84071,
        "meta_bstar": 0.0011295,
        "meta_mean_motion_dot": 1.838e-05,
        "meta_mean_motion_ddot": 0,
        "tle_line1": "1 35439U 93036AKH 25354.65311122  .00001838  00000+0  11295-2 0  9994",
        "tle_line2": "2 35439  74.0193 121.1801 0242584 288.7541  84.8538 13.92842634840712"
      },
      "geometry": {
        "type": "Point",
        "coordinates": [
          -55.31178793703362,
          -16.677977287404826
        ]
      }
    },
    {
      "type": "Feature",
      "properties": {
        "norad_id": 35440,
        "name": "COSMOS 2251 DEB",
        "group": "cosmos-2251-debris",
        "lat": 37.50150276785101,
        "lon": -2.018551998979835,
        "alt_km": 710.0423544365512,
        "timestamp": "2025-12-21T11:31:43.255576+00:00",
        "meta_object_name": "COSMOS 2251 DEB",
        "meta_object_id": "1993-036AKJ",
        "meta_epoch": "2025-12-17T20:15:19.490976",
        "meta_mean_motion": 14.68838958,
        "meta_eccentricity": 0.00695054,
        "meta_inclination": 74.0134,
        "meta_ra_of_asc_node": 197.7346,
        "meta_arg_of_pericenter": 337.3687,
        "meta_mean_anomaly": 22.4422,
        "meta_ephemeris_type": 0,
        "meta_classification_type": "U",
        "meta_norad_cat_id": 35440,
        "meta_element_set_no": 999,
        "meta_rev_at_epoch": 68840,
        "meta_bstar": 0.00030670457,
        "meta_mean_motion_dot": 1.824e-05,
        "meta_mean_motion_ddot": 0,
        "tle_line1": "1 35440U 93036AKJ 25351.84397559  .00001824  00000+0  30670-3 0  9996",
        "tle_line2": "2 35440  74.0134 197.7346 0069505 337.3687  22.4422 14.68838958688408"
      },
      "geometry": {
        "type": "Point",
        "coordinates": [
          -2.018551998979835,
          37.50150276785101
        ]
      }
    },
    {
      "type": "Feature",
      "properties": {
        "norad_id": 35441,
        "name": "COSMOS 2251 DEB",
        "group": "cosmos-2251-debris",
        "lat": -71.45433468110349,
        "lon": 159.4107114938577,
        "alt_km": 689.1670736411634,
        "timestamp": "2025-12-21T11:31:43.255586+00:00",
        "meta_object_name": "COSMOS 2251 DEB",
        "meta_object_id": "1993-036AKK",
        "meta_epoch": "2025-12-21T02:08:13.737696",
        "meta_mean_motion": 14.62705296,
        "meta_eccentricity": 0.0036187,
        "meta_inclination": 74.1353,
        "meta_ra_of_asc_node": 282.196,
        "meta_arg_of_pericenter": 175.8941,
        "meta_mean_anomaly": 184.2531,
        "meta_ephemeris_type": 0,
        "meta_classification_type": "U",
        "meta_norad_cat_id": 35441,
        "meta_element_set_no": 999,
        "meta_rev_at_epoch": 87552,
        "meta_bstar": 0.00090653,
        "meta_mean_motion_dot": 4.633e-05,
        "meta_mean_motion_ddot": 0,
        "tle_line1": "1 35441U 93036AKK 25355.08904789  .00004633  00000+0  90653-3 0  9994",
        "tle_line2": "2 35441  74.1353 282.1960 0036187 175.8941 184.2531 14.62705296875523"
      },
      "geometry": {
        "type": "Point",
        "coordinates": [
          159.4107114938577,
          -71.45433468110349
        ]
      }
    },
    {
      "type": "Feature",
      "properties": {
        "norad_id": 35442,
        "name": "COSMOS 2251 DEB",
        "group": "cosmos-2251-debris",
        "lat": 63.06992107136475,
        "lon": -132.5339904749928,
        "alt_km": 606.5355178526725,
        "timestamp": "2025-12-21T11:31:43.255597+00:00",
        "meta_object_name": "COSMOS 2251 DEB",
        "meta_object_id": "1993-036AKL",
        "meta_epoch": "2025-12-20T12:23:11.250816",
        "meta_mean_motion": 14.84692405,
        "meta_eccentricity": 0.00038306,
        "meta_inclination": 74.0274,
        "meta_ra_of_asc_node": 83.7009,
        "meta_arg_of_pericenter": 56.8444,
        "meta_mean_anomaly": 303.3101,
        "meta_ephemeris_type": 0,
        "meta_classification_type": "U",
        "meta_norad_cat_id": 35442,
        "meta_element_set_no": 999,
        "meta_rev_at_epoch": 87468,
        "meta_bstar": 0.0013094201,
        "meta_mean_motion_dot": 0.00011072,
        "meta_mean_motion_ddot": 0,
        "tle_line1": "1 35442U 93036AKL 25354.51610244  .00011072  00000+0  13094-2 0  9990",
        "tle_line2": "2 35442  74.0274  83.7009 0003830  56.8444 303.3101 14.84692405874683"
      },
      "geometry": {
        "type": "Point",
        "coordinates": [
          -132.5339904749928,
          63.06992107136475
        ]
      }
    },
    {
      "type": "Feature",
      "properties": {
        "norad_id": 35443,
        "name": "COSMOS 2251 DEB",
        "group": "cosmos-2251-debris",
        "lat": 2.4057934819779594,
        "lon": 133.16542317229667,
        "alt_km": 571.6542459924667,
        "timestamp": "2025-12-21T11:31:43.255608+00:00",
        "meta_object_name": "COSMOS 2251 DEB",
        "meta_object_id": "1993-036AKM",
        "meta_epoch": "2025-12-19T13:50:47.178816",
        "meta_mean_motion": 14.97233241,
        "meta_eccentricity": 0.007292,
        "meta_inclination": 73.988,
        "meta_ra_of_asc_node": 317.7188,
        "meta_arg_of_pericenter": 97.8759,
        "meta_mean_anomaly": 263.0711,
        "meta_ephemeris_type": 0,
        "meta_classification_type": "U",
        "meta_norad_cat_id": 35443,
        "meta_element_set_no": 999,
        "meta_rev_at_epoch": 86980,
        "meta_bstar": 0.0025283,
        "meta_mean_motion_dot": 0.00031007,
        "meta_mean_motion_ddot": 0,
        "tle_line1": "1 35443U 93036AKM 25353.57693494  .00031007  00000+0  25283-2 0  9997",
        "tle_line2": "2 35443  73.9880 317.7188 0072920  97.8759 263.0711 14.97233241869803"
      },
      "geometry": {
        "type": "Point",
        "coordinates": [
          133.16542317229667,
          2.4057934819779594
        ]
      }
    }
  ]
}